COMMENT,ORIGINATOR,NORAD_CAT_ID,OBJECT_NAME,OBJECT_TYPE,CLASSIFICATION_TYPE,INTLDES,EPOCH,EPOCH_MICROSECONDS,MEAN_MOTION,ECCENTRICITY,INCLINATION,RA_OF_ASC_NODE,ARG_OF_PERICENTER,MEAN_ANOMALY,EPHEMERIS_TYPE,ELEMENT_SET_NO,REV_AT_EPOCH,BSTAR,MEAN_MOTION_DOT,MEAN_MOTION_DDOT,FILE,TLE_LINE0,TLE_LINE1,TLE_LINE2,OBJECT_ID,OBJECT_NUMBER,SEMIMAJOR_AXIS,PERIOD,APOGEE,PERIGEE,DECAYED
"GENERATED VIA SPACETRACK.ORG API","18 SPCS","55092","SPACEBEE-166","PAYLOAD","U","23001CM","2023-05-18 09:51:50","418144","15.19465538","0.0018146","97.4784","198.8345","108.3005","252.0206","0","999","2058","0.00063876","0.0001355","0","3911221","0 SPACEBEE-166","1 55092U 23001CM  23138.41100021  .00013550  00000-0  63876-3 0  9990","2 55092  97.4784 198.8345 0018146 108.3005 252.0206 15.19465538 20586","2023-001CM","55092","6885.592","94.770","519.951","494.962","0"
"GENERATED VIA SPACETRACK.ORG API","18 SPCS","55092","SPACEBEE-166","PAYLOAD","U","23001CM","2023-05-18 14:36:19","884672","15.19471741","0.0018146","97.4783","199.03","107.9412","252.3803","0","999","2061","0.00064801","0.0001375","0","3911388","0 SPACEBEE-166","1 55092U 23001CM  23138.60856348  .00013750  00000-0  64801-3 0  9992","2 55092  97.4783 199.0300 0018146 107.9412 252.3803 15.19471741 20619","2023-001CM","55092","6885.573","94.770","519.933","494.943","0"
"GENERATED VIA SPACETRACK.ORG API","18 SPCS","55092","SPACEBEE-166","PAYLOAD","U","23001CM","2023-05-19 03:14:58","211808","15.19486481","0.0018059","97.4783","199.5518","106.1524","254.17","0","999","2069","0.00064982","0.00013794","0","3911555","0 SPACEBEE-166","1 55092U 23001CM  23139.13539597  .00013794  00000-0  64982-3 0  9993","2 55092  97.4783 199.5518 0018059 106.1524 254.1700 15.19486481 20694","2023-001CM","55092","6885.529","94.769","519.828","494.959","0"
"GENERATED VIA SPACETRACK.ORG API","18 SPCS","55092","SPACEBEE-166","PAYLOAD","U","23001CM","2023-05-19 09:34:17","209920","15.19493383","0.0017986","97.4781","199.8128","105.1401","255.1825","0","999","2073","0.00065495","0.00013906","0","3912278","0 SPACEBEE-166","1 55092U 23001CM  23139.39881030  .00013906  00000-0  65495-3 0  9998","2 55092  97.4781 199.8128 0017986 105.1401 255.1825 15.19493383 20736","2023-001CM","55092","6885.508","94.768","519.757","494.988","0"
"GENERATED VIA SPACETRACK.ORG API","18 SPCS","55092","SPACEBEE-166","PAYLOAD","U","23001CM","2023-05-20 17:10:49","947168","15.19551501","0.0017988","97.4778","201.1175","101.0339","259.2919","0","999","2093","0.0011444","0.00024426","0","3913056","0 SPACEBEE-166","1 55092U 23001CM  23140.71585587  .00024426  00000-0  11444-2 0  9997","2 55092  97.4778 201.1175 0017988 101.0339 259.2919 15.19551501 20936","2023-001CM","55092","6885.332","94.765","519.582","494.812","0"
"GENERATED VIA SPACETRACK.ORG API","18 SPCS","55092","SPACEBEE-166","PAYLOAD","U","23001CM","2023-05-20 21:55:18","417504","15.19561145","0.0018051","97.4777","201.3134","100.6838","259.643","0","999","2096","0.0011466","0.00024481","0","3913175","0 SPACEBEE-166","1 55092U 23001CM  23140.91340761  .00024481  00000-0  11466-2 0  9997","2 55092  97.4777 201.3134 0018051 100.6838 259.6430 15.19561145 20963","2023-001CM","55092","6885.303","94.764","519.597","494.739","0"
"GENERATED VIA SPACETRACK.ORG API","18 SPCS","55092","SPACEBEE-166","PAYLOAD","U","23001CM","2023-05-21 02:39:46","788480","15.19570968","0.0018035","97.4778","201.5091","100.021","260.3061","0","999","2099","0.0011236","0.00023993","0","3913738","0 SPACEBEE-166","1 55092U 23001CM  23141.11095820  .00023993  00000-0  11236-2 0  9995","2 55092  97.4778 201.5091 0018035 100.0210 260.3061 15.19570968 20993","2023-001CM","55092","6885.273","94.764","519.556","494.721","0"
"GENERATED VIA SPACETRACK.ORG API","18 SPCS","55092","SPACEBEE-166","PAYLOAD","U","23001CM","2023-05-21 21:37:39","337536","15.19604245","0.001805","97.4777","202.2922","97.5157","262.8129","0","999","2111","0.00096283","0.00020561","0","3914061","0 SPACEBEE-166","1 55092U 23001CM  23141.90114974  .00020561  00000-0  96283-3 0  9998","2 55092  97.4777 202.2922 0018050  97.5157 262.8129 15.19604245 21113","2023-001CM","55092","6885.173","94.762","519.466","494.610","0"
"GENERATED VIA SPACETRACK.ORG API","18 SPCS","55092","SPACEBEE-166","PAYLOAD","U","23001CM","2023-05-21 21:37:39","337536","15.19604245","0.001805","97.4777","202.2922","97.5157","262.8129","0","999","2111","0.00096283","0.00020561","0","3914288","0 SPACEBEE-166","1 55092U 23001CM  23141.90114974  .00020561  00000-0  96283-3 0  9998","2 55092  97.4777 202.2922 0018050  97.5157 262.8129 15.19604245 21113","2023-001CM","55092","6885.173","94.762","519.466","494.610","0"
"GENERATED VIA SPACETRACK.ORG API","18 SPCS","55092","SPACEBEE-166","PAYLOAD","U","23001CM","2023-05-22 03:56:56","506560","15.19619732","0.0018035","97.4777","202.5531","96.6986","263.6302","0","999","2115","0.0011184","0.00023916","0","3914693","0 SPACEBEE-166","1 55092U 23001CM  23142.16454290  .00023916  00000-0  11184-2 0  9998","2 55092  97.4777 202.5531 0018035  96.6986 263.6302 15.19619732 21158","2023-001CM","55092","6885.126","94.761","519.408","494.574","0"
"GENERATED VIA SPACETRACK.ORG API","18 SPCS","55092","SPACEBEE-166","PAYLOAD","U","23001CM","2023-05-22 16:35:30","409152","15.19636851","0.0018046","97.4771","203.0749","95.2591","265.0704","0","999","2123","0.00090422","0.0001932","0","3914964","0 SPACEBEE-166","1 55092U 23001CM  23142.69132418  .00019320  00000-0  90422-3 0  9998","2 55092  97.4771 203.0749 0018046  95.2591 265.0704 15.19636851 21230","2023-001CM","55092","6885.074","94.759","519.364","494.514","0"
"GENERATED VIA SPACETRACK.ORG API","18 SPCS","55092","SPACEBEE-166","PAYLOAD","U","23001CM","2023-05-23 02:04:25","431744","15.19652308","0.0018031","97.4771","203.4665","93.8244","266.5052","0","999","2129","0.0009586","0.00020499","0","3915139","0 SPACEBEE-166","1 55092U 23001CM  23143.08640546  .00020499  00000-0  95860-3 0  9998","2 55092  97.4771 203.4665 0018031  93.8244 266.5052 15.19652308 21297","2023-001CM","55092","6885.028","94.759","519.307","494.478","0"
"GENERATED VIA SPACETRACK.ORG API","18 SPCS","55092","SPACEBEE-166","PAYLOAD","U","23001CM","2023-05-23 17:52:36","361056","15.1967404","0.0017982","97.4771","204.1186","91.7229","268.6065","0","999","2139","0.00078279","0.00016728","0","3915766","0 SPACEBEE-166","1 55092U 23001CM  23143.74486529  .00016728  00000-0  78279-3 0  9995","2 55092  97.4771 204.1186 0017982  91.7229 268.6065 15.19674040 21392","2023-001CM","55092","6884.962","94.757","519.207","494.446","0"
"GENERATED VIA SPACETRACK.ORG API","18 SPCS","55092","SPACEBEE-166","PAYLOAD","U","23001CM","2023-05-24 09:40:46","429824","15.19699859","0.0017907","97.4769","204.7705","89.5193","270.8093","0","999","2149","0.00088504","0.00018941","0","3916249","0 SPACEBEE-166","1 55092U 23001CM  23144.40331516  .00018941  00000-0  88504-3 0  9995","2 55092  97.4769 204.7705 0017907  89.5193 270.8093 15.19699859 21496","2023-001CM","55092","6884.884","94.756","519.078","494.420","0"
"GENERATED VIA SPACETRACK.ORG API","18 SPCS","55092","SPACEBEE-166","PAYLOAD","U","23001CM","2023-05-24 14:25:13","319040","15.19704041","0.0017879","97.4769","204.9662","88.8689","271.4594","0","999","2152","0.00078734","0.0001684","0","3916549","0 SPACEBEE-166","1 55092U 23001CM  23144.60084860  .00016840  00000-0  78734-3 0  9994","2 55092  97.4769 204.9662 0017879  88.8689 271.4594 15.19704041 21527","2023-001CM","55092","6884.871","94.755","519.046","494.427","0"
"GENERATED VIA SPACETRACK.ORG API","18 SPCS","55092","SPACEBEE-166","PAYLOAD","U","23001CM","2023-05-25 17:17:04","166304","15.19743299","0.0017744","97.4771","206.0754","85.2138","275.1123","0","999","2169","0.0008578","0.00018377","0","3917038","0 SPACEBEE-166","1 55092U 23001CM  23145.72018711  .00018377  00000-0  85780-3 0  9996","2 55092  97.4771 206.0754 0017744  85.2138 275.1123 15.19743299 21691","2023-001CM","55092","6884.753","94.753","518.834","494.401","0"
"GENERATED VIA SPACETRACK.ORG API","18 SPCS","55092","SPACEBEE-166","PAYLOAD","U","23001CM","2023-05-25 17:17:04","166304","15.19743299","0.0017744","97.4771","206.0754","85.2138","275.1123","0","999","2169","0.0008578","0.00018377","0","3917122","0 SPACEBEE-166","1 55092U 23001CM  23145.72018711  .00018377  00000-0  85780-3 0  9996","2 55092  97.4771 206.0754 0017744  85.2138 275.1123 15.19743299 21691","2023-001CM","55092","6884.753","94.753","518.834","494.401","0"
"GENERATED VIA SPACETRACK.ORG API","18 SPCS","55092","SPACEBEE-166","PAYLOAD","U","23001CM","2023-05-26 02:45:56","854368","15.19754952","0.0017751","97.4771","206.4669","83.9039","276.4217","0","999","2175","0.00079006","0.00016922","0","3917630","0 SPACEBEE-166","1 55092U 23001CM  23146.11524137  .00016922  00000-0  79006-3 0  9992","2 55092  97.4771 206.4669 0017751  83.9039 276.4217 15.19754952 21756","2023-001CM","55092","6884.718","94.752","518.804","494.362","0"
"GENERATED VIA SPACETRACK.ORG API","18 SPCS","55092","SPACEBEE-166","PAYLOAD","U","23001CM","2023-05-26 16:59:15","304128","15.19773396","0.0017758","97.4772","207.0544","81.8243","278.5005","0","999","2184","0.00072156","0.00015454","0","3917850","0 SPACEBEE-166","1 55092U 23001CM  23146.70781602  .00015454  00000-0  72156-3 0  9997","2 55092  97.4772 207.0544 0017758  81.8243 278.5005 15.19773396 21848","2023-001CM","55092","6884.662","94.751","518.753","494.301","0"
"GENERATED VIA SPACETRACK.ORG API","18 SPCS","55092","SPACEBEE-166","PAYLOAD","U","23001CM","2023-05-27 02:28:07","294080","15.19784203","0.0017763","97.4774","207.4458","80.6602","279.664","0","999","2190","0.00067481","0.00014451","0","3918069","0 SPACEBEE-166","1 55092U 23001CM  23147.10286220  .00014451  00000-0  67481-3 0  9999","2 55092  97.4774 207.4458 0017763  80.6602 279.6640 15.19784203 21903","2023-001CM","55092","6884.629","94.750","518.723","494.265","0"
